NOAA 18                 
1 28654U 05018A   26071.93902157  .00000054  00000+0  51840-4 0  9991
2 28654  98.8151 153.0007 0015219  66.9478 293.3298 14.13711588 72715
NOAA 19                 
1 33591U 09005A   26071.92078288  .00000064  00000+0  57752-4 0  9994
2 33591  98.9601 142.6971 0012770 304.8626  55.1345 14.13457557880889
SUOMI NPP               
1 37849U 11061A   26071.91505046  .00000090  00000+0  63727-4 0  9993
2 37849  98.7872  13.4921 0000614 205.7710 154.3435 14.19544560744781
NOAA 20 (JPSS-1)        
1 43013U 17073A   26071.92974219  .00000091  00000+0  64184-4 0  9994
2 43013  98.7694  12.2846 0001341 133.3260 226.8028 14.19537037430810
