[{"OBJECT_NAME":"NOAA 18","OBJECT_ID":"2005-018A","EPOCH":"2026-03-12T22:32:11.464512","MEAN_MOTION":14.13711588,"ECCENTRICITY":0.00152192,"INCLINATION":98.8151,"RA_OF_ASC_NODE":153.0007,"ARG_OF_PERICENTER":66.9478,"MEAN_ANOMALY":293.3298,"EPHEMERIS_TYPE":0,"CLASSIFICATION_TYPE":"U","NORAD_CAT_ID":28654,"ELEMENT_SET_NO":999,"REV_AT_EPOCH":7271,"BSTAR":5.1840114e-5,"MEAN_MOTION_DOT":5.4e-7,"MEAN_MOTION_DDOT":0},{"OBJECT_NAME":"NOAA 19","OBJECT_ID":"2009-005A","EPOCH":"2026-03-12T22:05:55.641696","MEAN_MOTION":14.13457557,"ECCENTRICITY":0.00127703,"INCLINATION":98.9601,"RA_OF_ASC_NODE":142.6971,"ARG_OF_PERICENTER":304.8626,"MEAN_ANOMALY":55.1345,"EPHEMERIS_TYPE":0,"CLASSIFICATION_TYPE":"U","NORAD_CAT_ID":33591,"ELEMENT_SET_NO":999,"REV_AT_EPOCH":88088,"BSTAR":5.7751667e-5,"MEAN_MOTION_DOT":6.4e-7,"MEAN_MOTION_DDOT":0},{"OBJECT_NAME":"SUOMI NPP","OBJECT_ID":"2011-061A","EPOCH":"2026-03-12T21:57:40.359744","MEAN_MOTION":14.1954456,"ECCENTRICITY":6.136e-5,"INCLINATION":98.7872,"RA_OF_ASC_NODE":13.4921,"ARG_OF_PERICENTER":205.771,"MEAN_ANOMALY":154.3435,"EPHEMERIS_TYPE":0,"CLASSIFICATION_TYPE":"U","NORAD_CAT_ID":37849,"ELEMENT_SET_NO":999,"REV_AT_EPOCH":74478,"BSTAR":6.3726819e-5,"MEAN_MOTION_DOT":9.0e-7,"MEAN_MOTION_DDOT":0},{"OBJECT_NAME":"NOAA 20 (JPSS-1)","OBJECT_ID":"2017-073A","EPOCH":"2026-03-12T22:18:49.725216","MEAN_MOTION":14.19537037,"ECCENTRICITY":0.00013406,"INCLINATION":98.7694,"RA_OF_ASC_NODE":12.2846,"ARG_OF_PERICENTER":133.326,"MEAN_ANOMALY":226.8028,"EPHEMERIS_TYPE":0,"CLASSIFICATION_TYPE":"U","NORAD_CAT_ID":43013,"ELEMENT_SET_NO":999,"REV_AT_EPOCH":43081,"BSTAR":6.4183789e-5,"MEAN_MOTION_DOT":9.1e-7,"MEAN_MOTION_DDOT":0}]
